NORAD_CAT_ID,OBJECT_NAME,OBJECT_TYPE,EPOCH,MEAN_MOTION,ECCENTRICITY,INCLINATION,RA_OF_ASC_NODE,ARG_OF_PERICENTER,MEAN_ANOMALY,BSTAR,MEAN_MOTION_DOT,MEAN_MOTION_DDOT,TLE_LINE0,TLE_LINE1,TLE_LINE2,SEMIMAJOR_AXIS,PERIOD,APOGEE,PERIGEE,DECAYED
53418.0,STARLINK-4481,PAYLOAD,2022-09-05 22:00:00,15.73207117,0.0001002,53.2197,115.6924,92.5646,201.8558,-0.00077112,-0.00107497,0.0,0 STARLINK-4481,1 53418U 22097AG  22248.91667824 -.00107497  00000-0 -77112-3 0  9993,2 53418  53.2197 115.6924 0001002  92.5646 201.8558 15.73207117  1300,6727.875,91.533,350.414,349.066,0.0
53418.0,STARLINK-4481,PAYLOAD,2022-09-06 14:00:01,15.73136128,0.0001189999999999,53.2194,112.3919,100.5218,11.6366,-0.00016164,-0.00023179,0.0,0 STARLINK-4481,1 53418U 22097AG  22249.58334491 -.00023179  00000-0 -16164-3 0  9992,2 53418  53.2194 112.3919 0001190 100.5218  11.6366 15.73136128  1305,6728.0769999999975,91.537,350.74300000000005,349.142,0.0
53418.0,STARLINK-4481,PAYLOAD,2022-09-06 20:00:01,15.73132345,0.0001261,53.2184,111.1567,92.0237,356.7859,0.00014251,0.00019369,0.0,0 STARLINK-4481,1 53418U 22097AG  22249.83334491  .00019369  00000-0  14251-3 0  9999,2 53418  53.2184 111.1567 0001261  92.0237 356.7859 15.73132345  4787,6728.0880000000025,91.537,350.801,349.105,0.0
53418.0,STARLINK-4481,PAYLOAD,2022-09-06 22:00:00,15.73125493,0.000128,53.2184,110.7448,88.2009,112.8212,0.00032793,0.00045505,0.0,0 STARLINK-4481,1 53418U 22097AG  22249.91667824  .00045505  00000-0  32793-3 0  9999,2 53418  53.2184 110.7448 0001280  88.2009 112.8212 15.73125493  1300,6728.108,91.538,350.834,349.111,0.0
53418.0,STARLINK-4481,PAYLOAD,2022-09-07 14:00:01,15.73199649,0.0001196,53.2182,107.4444,101.4941,277.2997,0.00064417,0.00090765,0.0,0 STARLINK-4481,1 53418U 22097AG  22250.58334491  .00090765  00000-0  64417-3 0  9991,2 53418  53.2182 107.4444 0001196 101.4941 277.2997 15.73199649  4893,6727.896,91.533,350.566,348.957,0.0
53418.0,STARLINK-4481,PAYLOAD,2022-09-07 22:00:00,15.73251126,0.0001100999999999,53.218,105.797,89.6127,18.1153,4.9409e-05,6.334e-05,0.0,0 STARLINK-4481,1 53418U 22097AG  22250.91667824  .00006334  00000-0  49409-4 0  9991,2 53418  53.2180 105.7970 0001101  89.6127  18.1153 15.73251126  1303,6727.749,91.53,350.355,348.874,0.0
53418.0,STARLINK-4481,PAYLOAD,2022-09-08 14:00:01,15.7316575,0.0001094999999999,53.2184,102.4958,99.1583,186.5149,0.00049123,0.00068785,0.0,0 STARLINK-4481,1 53418U 22097AG  22251.58334491  .00068785  00000-0  49123-3 0  9996,2 53418  53.2184 102.4958 0001095  99.1583 186.5149 15.73165750  1303,6727.993,91.535,350.595,349.121,0.0
53418.0,STARLINK-4481,PAYLOAD,2022-09-08 22:00:00,15.73245993,0.0001224,53.2182,100.8483,84.5443,290.0671,-0.00036061,-0.00051022,0.0,0 STARLINK-4481,1 53418U 22097AG  22251.91667824 -.00051022  00000-0 -36061-3 0  9997,2 53418  53.2182 100.8483 0001224  84.5443 290.0671 15.73245993  5104,6727.764,91.531,350.45300000000015,348.806,0.0
53418.0,STARLINK-4481,PAYLOAD,2022-09-09 14:00:01,15.73183761,0.0001452,53.2179,97.5474,96.9786,95.5165,0.00054922,0.00077116,0.0,0 STARLINK-4481,1 53418U 22097AG  22252.58334491  .00077116  00000-0  54922-3 0  9998,2 53418  53.2179  97.5474 0001452  96.9786  95.5165 15.73183761  1300,6727.941,91.534,350.783,348.83,0.0
53418.0,STARLINK-4481,PAYLOAD,2022-09-09 22:00:00,15.73248926,0.0001338,53.2174,95.8985,84.1116,197.3218,-0.00018668,-0.00026791,0.0,0 STARLINK-4481,1 53418U 22097AG  22252.91667824 -.00026791  00000-0 -18668-3 0  9996,2 53418  53.2174  95.8985 0001338  84.1116 197.3218 15.73248926  1307,6727.755999999999,91.53,350.521,348.721,0.0
53418.0,STARLINK-4481,PAYLOAD,2022-09-10 06:00:02,15.73212766,0.0001149,53.2177,94.2491,88.3975,282.0417,5.9829e-05,7.789e-05,0.0,0 STARLINK-4481,1 53418U 22097AG  22253.25002315  .00007789  00000-0  59829-4 0  9991,2 53418  53.2177  94.2491 0001149  88.3975 282.0417 15.73212766  5315,6727.859,91.532,350.497,348.951,0.0
53418.0,STARLINK-4481,PAYLOAD,2022-09-10 14:00:01,15.73201832,0.0001283,53.218,92.5986,94.128,5.1807,-9.09e-05,-0.00013358,0.0,0 STARLINK-4481,1 53418U 22097AG  22253.58334491 -.00013358  00000-0 -90900-4 0  9996,2 53418  53.2180  92.5986 0001283  94.1280   5.1807 15.73201832  1306,6727.89,91.533,350.61800000000005,348.892,0.0
53418.0,STARLINK-4481,PAYLOAD,2022-09-10 20:00:01,15.73213633,0.0001274,53.2178,91.3632,82.2695,353.7293,-0.00058385,-0.00081814,0.0,0 STARLINK-4481,1 53418U 22097AG  22253.83334491 -.00081814  00000-0 -58385-3 0  9996,2 53418  53.2178  91.3632 0001274  82.2695 353.7293 15.73213633  5415,6727.856,91.532,350.57800000000015,348.86400000000015,0.0
53418.0,STARLINK-4481,PAYLOAD,2022-09-10 22:00:00,15.73212091,0.0001202,53.218,90.951,78.7143,109.5562,-0.00013295,-0.00019245,0.0,0 STARLINK-4481,1 53418U 22097AG  22253.91667824 -.00019245  00000-0 -13295-3 0  9994,2 53418  53.2180  90.9510 0001202  78.7143 109.5562 15.73212091  1304,6727.861,91.532,350.534,348.917,0.0
53418.0,STARLINK-4481,PAYLOAD,2022-09-11 06:00:00,15.73223482,9.2e-05,53.2176,89.2999,83.1964,194.0378,-0.00028905,-0.00041027,0.0,0 STARLINK-4481,1 53418U 22097AG  22254.25001157 -.00041027  00000-0 -28905-3 0  9990,2 53418  53.2176  89.2999 0000920  83.1964 194.0378 15.73223482  5470,6727.828,91.532,350.31199999999984,349.074,0.0
53418.0,STARLINK-4481,PAYLOAD,2022-09-11 14:00:01,15.73182197,8.13e-05,53.2177,87.65,90.7134,275.4651,0.00025031,0.00034627,0.0,0 STARLINK-4481,1 53418U 22097AG  22254.58334491  .00034627  00000-0  25031-3 0  9999,2 53418  53.2177  87.6500 0000813  90.7134 275.4651 15.73182197  1308,6727.946,91.534,350.358,349.264,0.0
53418.0,STARLINK-4481,PAYLOAD,2022-09-11 22:00:00,15.73216305,8.73e-05,53.2176,86.0025,69.0944,26.0032,-9.7971e-05,-0.00014354,0.0,0 STARLINK-4481,1 53418U 22097AG  22254.91667824 -.00014354  00000-0 -97971-4 0  9995,2 53418  53.2176  86.0025 0000873  69.0944  26.0032 15.73216305  5582,6727.849,91.532,350.301,349.126,0.0
53418.0,STARLINK-4481,PAYLOAD,2022-09-12 14:00:01,15.73169972,0.0001167999999999,53.2181,82.7013,83.9307,189.0368,0.00033198,0.00046167,0.0,0 STARLINK-4481,1 53418U 22097AG  22255.58334491  .00046167  00000-0  33198-3 0  9995,2 53418  53.2181  82.7013 0001168  83.9307 189.0368 15.73169972  1309,6727.981,91.535,350.63199999999995,349.06,0.0
53418.0,STARLINK-4481,PAYLOAD,2022-09-12 22:00:00,15.73212266,0.0001279,53.2182,81.0538,68.7341,293.1657,0.00034431,0.00048003,0.0,0 STARLINK-4481,1 53418U 22097AG  22255.91667824  .00048003  00000-0  34431-3 0  9993,2 53418  53.2182  81.0538 0001279  68.7341 293.1657 15.73212266  5730,6727.86,91.532,350.586,348.865,0.0
53418.0,STARLINK-4481,PAYLOAD,2022-09-13 06:00:00,15.7324263,0.0001165,53.2181,79.4025,74.9803,15.8893,-0.000533,-0.00074895,0.0,0 STARLINK-4481,1 53418U 22097AG  22256.25001157 -.00074895  00000-0 -53300-3 0  9998,2 53418  53.2181  79.4025 0001165  74.9803  15.8893 15.73242630  5792,6727.774,91.531,350.422,348.855,0.0
53418.0,STARLINK-4481,PAYLOAD,2022-09-13 14:00:01,15.73216865,0.0001246,53.2182,77.7531,78.2367,101.5749,-0.00041944,-0.00059115,0.0,0 STARLINK-4481,1 53418U 22097AG  22256.58334491 -.00059115  00000-0 -41944-3 0  9993,2 53418  53.2182  77.7531 0001246  78.2367 101.5749 15.73216865  1305,6727.847,91.532,350.55,348.874,0.0
53418.0,STARLINK-4481,PAYLOAD,2022-09-13 16:00:00,15.73204909,0.0001276,53.2183,77.3412,74.1665,217.8805,-0.00035671,-0.00050393,0.0,0 STARLINK-4481,1 53418U 22097AG  22256.66667824 -.00050393  00000-0 -35671-3 0  9990,2 53418  53.2183  77.3412 0001276  74.1665 217.8805 15.73204909  5853,6727.880999999999,91.533,350.605,348.88800000000015,0.0
53418.0,STARLINK-4481,PAYLOAD,2022-09-13 22:00:00,15.73135703,0.0001392,53.2175,76.1032,65.1985,203.5298,0.00075034,0.00105727,0.0,0 STARLINK-4481,1 53418U 22097AG  22256.91667824  .00105727  00000-0  75034-3 0  9995,2 53418  53.2175  76.1032 0001392  65.1985 203.5298 15.73135703  1302,6728.078,91.537,350.88,349.00699999999995,0.0
53418.0,STARLINK-4481,PAYLOAD,2022-09-14 06:00:00,15.73196449,0.0001069,53.2182,74.4543,71.4688,286.1494,-0.00039472,-0.00055641,0.0,0 STARLINK-4481,1 53418U 22097AG  22257.25001157 -.00055641  00000-0 -39472-3 0  9991,2 53418  53.2182  74.4543 0001069  71.4688 286.1494 15.73196449  5942,6727.905,91.533,350.49,349.051,0.0
53418.0,STARLINK-4481,PAYLOAD,2022-09-14 14:00:01,15.7319903,0.0001097,53.2185,72.8049,68.4506,18.0659,0.0001102,0.00014873,0.0,0 STARLINK-4481,1 53418U 22097AG  22257.58334491  .00014873  00000-0  11020-3 0  9996,2 53418  53.2185  72.8049 0001097  68.4506  18.0659 15.73199030  6006,6727.898,91.533,350.501,349.025,0.0
53418.0,STARLINK-4481,PAYLOAD,2022-09-14 22:00:00,15.73136581,0.0001330999999999,53.2186,71.1574,56.4977,118.936,0.00084194,0.00118902,0.0,0 STARLINK-4481,1 53418U 22097AG  22257.91667824  .00118902  00000-0  84194-3 0  9992,2 53418  53.2186  71.1574 0001331  56.4977 118.9360 15.73136581  1301,6728.076,91.537,350.836,349.045,0.0
53418.0,STARLINK-4481,PAYLOAD,2022-09-15 06:00:00,15.7319805,0.0001248,53.2186,69.5062,62.1857,202.149,0.00045583,0.00063834,0.0,0 STARLINK-4481,1 53418U 22097AG  22258.25001157  .00063834  00000-0  45583-3 0  9993,2 53418  53.2186  69.5062 0001248  62.1857 202.1490 15.73198050  6104,6727.901,91.533,350.605,348.926,0.0
53418.0,STARLINK-4481,PAYLOAD,2022-09-15 14:00:01,15.73297156,0.0001353,53.2185,67.8571,63.9744,289.3199,-0.00053866,-0.00075853,0.0,0 STARLINK-4481,1 53418U 22097AG  22258.58334491 -.00075853  00000-0 -53866-3 0  9998,2 53418  53.2185  67.8571 0001353  63.9744 289.3199 15.73297156  1307,6727.618,91.528,350.39300000000014,348.5730000000001,0.0
53418.0,STARLINK-4481,PAYLOAD,2022-09-15 22:00:00,15.732490099999998,0.0001496,53.2182,66.2093,54.7068,27.5989,8.682e-05,0.00011606,0.0,0 STARLINK-4481,1 53418U 22097AG  22258.91667824  .00011606  00000-0  86820-4 0  9995,2 53418  53.2182  66.2093 0001496  54.7068  27.5989 15.73249010  1306,6727.755,91.53,350.62699999999984,348.61400000000015,0.0
